[{"OBJECT_NAME":"STARLINK-4709","OBJECT_ID":"2022-111F","EPOCH":"2026-03-08T23:39:51.799680","MEAN_MOTION":15.08839766,"ECCENTRICITY":0.00012293,"INCLINATION":53.2162,"RA_OF_ASC_NODE":282.0081,"ARG_OF_PERICENTER":98.4191,"MEAN_ANOMALY":261.6941,"EPHEMERIS_TYPE":0,"CLASSIFICATION_TYPE":"U","NORAD_CAT_ID":53778,"ELEMENT_SET_NO":999,"REV_AT_EPOCH":19352,"BSTAR":7.1386124e-5,"MEAN_MOTION_DOT":8.48e-6,"MEAN_MOTION_DDOT":0},{"OBJECT_NAME":"CZ-4B DEB","OBJECT_ID":"2008-053M","EPOCH":"2026-03-05T07:18:48.921696","MEAN_MOTION":15.08195439,"ECCENTRICITY":0.0017401,"INCLINATION":97.8281,"RA_OF_ASC_NODE":90.6528,"ARG_OF_PERICENTER":258.7901,"MEAN_ANOMALY":101.1371,"EPHEMERIS_TYPE":0,"CLASSIFICATION_TYPE":"U","NORAD_CAT_ID":44593,"ELEMENT_SET_NO":999,"REV_AT_EPOCH":67199,"BSTAR":0.00019653,"MEAN_MOTION_DOT":2.982e-5,"MEAN_MOTION_DDOT":0}]
